[{"OBJECT_NAME":"STARLINK-5416","OBJECT_ID":"2022-177AM","EPOCH":"2026-03-09T22:00:01.999584","MEAN_MOTION":15.11942411,"ECCENTRICITY":0.0002021,"INCLINATION":43.0002,"RA_OF_ASC_NODE":118.8885,"ARG_OF_PERICENTER":260.24,"MEAN_ANOMALY":33.7143,"EPHEMERIS_TYPE":0,"CLASSIFICATION_TYPE":"U","NORAD_CAT_ID":54855,"ELEMENT_SET_NO":999,"REV_AT_EPOCH":557,"BSTAR":0.001606781,"MEAN_MOTION_DOT":0.00027917,"MEAN_MOTION_DDOT":0},{"OBJECT_NAME":"SCOUT X-4 R\/B","OBJECT_ID":"1964-076C","EPOCH":"2026-03-09T21:31:37.688736","MEAN_MOTION":12.82292935,"ECCENTRICITY":0.10503796,"INCLINATION":81.3341,"RA_OF_ASC_NODE":228.4824,"ARG_OF_PERICENTER":226.0934,"MEAN_ANOMALY":124.8691,"EPHEMERIS_TYPE":0,"CLASSIFICATION_TYPE":"U","NORAD_CAT_ID":933,"ELEMENT_SET_NO":999,"REV_AT_EPOCH":82385,"BSTAR":0.00066284647,"MEAN_MOTION_DOT":1.978e-5,"MEAN_MOTION_DDOT":0}]
